NORAD_CAT_ID,OBJECT_NAME,OBJECT_TYPE,EPOCH,MEAN_MOTION,ECCENTRICITY,INCLINATION,RA_OF_ASC_NODE,ARG_OF_PERICENTER,MEAN_ANOMALY,BSTAR,MEAN_MOTION_DOT,MEAN_MOTION_DDOT,TLE_LINE0,TLE_LINE1,TLE_LINE2,SEMIMAJOR_AXIS,PERIOD,APOGEE,PERIGEE,DECAYED
53577.0,STARLINK-4553,PAYLOAD,2022-10-01 14:00:01,15.73208119,0.0004298999999999,53.2147,302.9303,2.5366,3.3943,-0.00019087,-0.0002735,0.0,0 STARLINK-4553,1 53577U 22101BC  22274.58334491 -.00027350  00000-0 -19087-3 0  9994,2 53577  53.2147 302.9303 0004299   2.5366   3.3943 15.73208119  1300,6727.871999999999,91.533,352.629,346.845,0.0
53577.0,STARLINK-4553,PAYLOAD,2022-10-01 22:00:00,15.73146709,0.0003941,53.215,301.2787,0.9728,93.904,-4.7961e-05,-7.337e-05,0.0,0 STARLINK-4553,1 53577U 22101BC  22274.91667824 -.00007337  00000-0 -47961-4 0  9996,2 53577  53.2150 301.2787 0003941   0.9728  93.9040 15.73146709  1308,6728.047,91.536,352.564,347.261,0.0
53577.0,STARLINK-4553,PAYLOAD,2022-10-02 06:00:00,15.73138003,0.0004101,53.2153,299.6302,3.9553,179.7867,-0.00014689,-0.00021143,0.0,0 STARLINK-4553,1 53577U 22101BC  22275.25001157 -.00021143  00000-0 -14689-3 0  9996,2 53577  53.2153 299.6302 0004101   3.9553 179.7867 15.73138003  6866,6728.071999999999,91.537,352.696,347.17800000000005,0.0
53577.0,STARLINK-4553,PAYLOAD,2022-10-02 14:00:01,15.73123496,0.0004306,53.215,297.9818,4.9689,267.6167,0.00061647,0.00086541,0.0,0 STARLINK-4553,1 53577U 22101BC  22275.58334491  .00086541  00000-0  61647-3 0  9999,2 53577  53.2150 297.9818 0004306   4.9689 267.6167 15.73123496  1308,6728.113,91.538,352.875,347.081,0.0
53577.0,STARLINK-4553,PAYLOAD,2022-10-02 22:00:00,15.73165092,0.0004071,53.215,296.3304,6.8706,354.6069,0.00092172,0.00130611,0.0,0 STARLINK-4553,1 53577U 22101BC  22275.91667824  .00130611  00000-0  92172-3 0  9990,2 53577  53.2150 296.3304 0004071   6.8706 354.6069 15.73165092  1307,6727.995,91.535,352.599,347.121,0.0
53577.0,STARLINK-4553,PAYLOAD,2022-10-03 14:00:01,15.7326109,0.0004277,53.2142,293.0333,3.4875,175.9406,-9.537e-05,-0.0001403,0.0,0 STARLINK-4553,1 53577U 22101BC  22276.58334491 -.00014030  00000-0 -95370-4 0  9997,2 53577  53.2142 293.0333 0004277   3.4875 175.9406 15.73261090  7076,6727.721,91.53,352.463,346.709,0.0
53577.0,STARLINK-4553,PAYLOAD,2022-10-03 22:00:00,15.73370801,0.0003918,53.2158,291.3763,1.1914,267.2025,-0.003268,-0.00439671,0.0,0 STARLINK-4553,1 53577U 22101BC  22276.91667824 -.00439671  00000-0 -32680-2 0  9998,2 53577  53.2158 291.3763 0003918   1.1914 267.2025 15.73370801  1304,6727.408,91.523,351.909,346.63699999999994,0.0
53577.0,STARLINK-4553,PAYLOAD,2022-10-04 06:00:00,15.72959428,0.0004343,53.217,289.7246,4.8912,352.4623,0.0026794,0.00389416,0.0,0 STARLINK-4553,1 53577U 22101BC  22277.25001157  .00389416  00000-0  26794-2 0  9995,2 53577  53.2170 289.7246 0004343   4.8912 352.4623 15.72959428  7175,6728.581,91.547,353.36800000000005,347.524,0.0
53577.0,STARLINK-4553,PAYLOAD,2022-10-04 14:00:01,15.73204849,0.0004473,53.2173,288.074,5.2994,80.8597,-3.9686e-06,-1.183e-05,0.0,0 STARLINK-4553,1 53577U 22101BC  22277.58334491 -.00001183  00000-0 -39686-5 0  9992,2 53577  53.2173 288.0740 0004473   5.2994  80.8597 15.73204849  1300,6727.880999999999,91.533,352.756,346.737,0.0
53577.0,STARLINK-4553,PAYLOAD,2022-10-04 22:00:00,15.73146876,0.000393,53.2141,286.4329,0.7184,174.5673,0.0007607,0.00107299,0.0,0 STARLINK-4553,1 53577U 22101BC  22277.91667824  .00107299  00000-0  76070-3 0  9997,2 53577  53.2141 286.4329 0003930   0.7184 174.5673 15.73146876  7282,6728.047,91.536,352.556,347.26800000000014,0.0
53577.0,STARLINK-4553,PAYLOAD,2022-10-05 06:00:00,15.73227666,0.0004093999999999,53.2139,284.7852,3.1414,261.0564,-0.00056918,-0.00079889,0.0,0 STARLINK-4553,1 53577U 22101BC  22278.25001157 -.00079889  00000-0 -56918-3 0  9990,2 53577  53.2139 284.7852 0004094   3.1414 261.0564 15.73227666  7330,6727.816,91.532,352.436,346.927,0.0
53577.0,STARLINK-4553,PAYLOAD,2022-10-05 14:00:01,15.73182948,0.0004188,53.2132,283.1358,1.5832,351.5915,1.3648e-05,1.29e-05,0.0,0 STARLINK-4553,1 53577U 22101BC  22278.58335648  .00001290  00000-0  13648-4 0  9994,2 53577  53.2132 283.1358 0004188   1.5832 351.5915 15.73182948  1306,6727.944,91.534,352.626,346.991,0.0
53577.0,STARLINK-4553,PAYLOAD,2022-10-05 22:00:00,15.73150788,0.0003881,53.2133,281.4843,1.7859,80.2428,0.00042704,0.0005962999999999,0.0,0 STARLINK-4553,1 53577U 22101BC  22278.91667824  .00059630  00000-0  42704-3 0  9990,2 53577  53.2133 281.4843 0003881   1.7859  80.2428 15.73150788  7440,6728.035,91.536,352.51199999999994,347.289,0.0
53577.0,STARLINK-4553,PAYLOAD,2022-10-06 14:00:01,15.73172837,0.0004131999999999,53.2132,278.1869,2.1695,257.6849,0.00050997,0.00071504,0.0,0 STARLINK-4553,1 53577U 22101BC  22279.58334491  .00071504  00000-0  50997-3 0  9992,2 53577  53.2132 278.1869 0004132   2.1695 257.6849 15.73172837  1308,6727.973000000001,91.535,352.61800000000005,347.05800000000005,0.0
53577.0,STARLINK-4553,PAYLOAD,2022-10-06 22:42:55,15.73214897,0.0003846,53.2139,276.387,1.2714,156.3384,0.00031467,0.00043813,0.0,0 STARLINK-4553,1 53577U 22101BC  22279.94646991  .00043813  00000-0  31467-3 0  9996,2 53577  53.2139 276.3870 0003846   1.2714 156.3384 15.73214897  7601,6727.853,91.532,352.305,347.13,0.0
53577.0,STARLINK-4553,PAYLOAD,2022-10-07 14:00:01,15.73275215,0.000399,53.2123,273.2377,357.6492,169.0646,-0.00082712,-0.0011556,0.0,0 STARLINK-4553,1 53577U 22101BC  22280.58334491 -.00115560  00000-0 -82712-3 0  9997,2 53577  53.2123 273.2377 0003990 357.6492 169.0646 15.73275215  7707,6727.681,91.529,352.23,346.861,0.0
53577.0,STARLINK-4553,PAYLOAD,2022-10-07 22:00:00,15.73189048,0.0003658,53.2124,271.5862,359.4534,256.2405,-0.00012156,-0.00017647,0.0,0 STARLINK-4553,1 53577U 22101BC  22280.91667824 -.00017647  00000-0 -12156-3 0  9995,2 53577  53.2124 271.5862 0003658 359.4534 256.2405 15.73189048  1306,6727.926,91.534,352.25199999999984,347.33,0.0
53577.0,STARLINK-4553,PAYLOAD,2022-10-08 06:00:00,15.73164591,0.0003832,53.2126,269.9384,3.01,341.6009,-0.00019489,-0.00027856,0.0,0 STARLINK-4553,1 53577U 22101BC  22281.25001157 -.00027856  00000-0 -19489-3 0  9993,2 53577  53.2126 269.9384 0003832   3.0100 341.6009 15.73164591  7809,6727.996,91.535,352.439,347.283,0.0
53577.0,STARLINK-4553,PAYLOAD,2022-10-08 14:00:01,15.73177263,0.0003896,53.2126,268.2885,3.1021,70.3718,-0.00031629,-0.00044755,0.0,0 STARLINK-4553,1 53577U 22101BC  22281.58334491 -.00044755  00000-0 -31629-3 0  9996,2 53577  53.2126 268.2885 0003896   3.1021  70.3718 15.73177263  1302,6727.96,91.535,352.446,347.204,0.0
53577.0,STARLINK-4553,PAYLOAD,2022-10-08 22:00:00,15.73165969,0.0003618,53.2128,266.6374,6.6046,155.754,0.00054006,0.00075768,0.0,0 STARLINK-4553,1 53577U 22101BC  22281.91667824  .00075768  00000-0  54006-3 0  9992,2 53577  53.2128 266.6374 0003618   6.6046 155.7540 15.73165969  7910,6727.9919999999975,91.535,352.291,347.423,0.0
53577.0,STARLINK-4553,PAYLOAD,2022-10-09 14:00:01,15.73277762,0.0003767,53.2121,263.3393,4.0252,336.19,-0.00040411,-0.00057168,0.0,0 STARLINK-4553,1 53577U 22101BC  22282.58334491 -.00057168  00000-0 -40411-3 0  9998,2 53577  53.2121 263.3393 0003767   4.0252 336.1900 15.73277762  8016,6727.6730000000025,91.529,352.0730000000001,347.004,0.0
53577.0,STARLINK-4553,PAYLOAD,2022-10-09 22:00:00,15.73243771,0.0003514,53.2125,261.688,7.3252,61.88800000000001,-0.00025825,-0.00036791,0.0,0 STARLINK-4553,1 53577U 22101BC  22282.91667824 -.00036791  00000-0 -25825-3 0  9995,2 53577  53.2125 261.6880 0003514   7.3252  61.8880 15.73243771  1305,6727.77,91.531,352.0,347.271,0.0
53577.0,STARLINK-4553,PAYLOAD,2022-10-10 14:00:01,15.73247377,0.0003783,53.2148,258.3858,6.6511,240.4465,-0.0017863,-0.00244808,0.0,0 STARLINK-4553,1 53577U 22101BC  22283.58334491 -.00244808  00000-0 -17863-2 0  9992,2 53577  53.2148 258.3858 0003783   6.6511 240.4465 15.73247377  1306,6727.76,91.53,352.17,347.08,0.0
53577.0,STARLINK-4553,PAYLOAD,2022-10-10 22:00:01,15.72871971,0.0003719,53.2161,256.7317,9.1431,327.0348,0.0033262,0.00487462,0.0,0 STARLINK-4553,1 53577U 22101BC  22283.91668981  .00487462  00000-0  33262-2 0  9997,2 53577  53.2161 256.7317 0003719   9.1431 327.0348 15.72871971  8223,6728.831,91.552,353.1980000000001,348.1930000000001,0.0
53577.0,STARLINK-4553,PAYLOAD,2022-10-11 06:00:00,15.73138974,0.000367,53.2136,255.0906,9.6886,55.3068,0.00062363,0.00087612,0.0,0 STARLINK-4553,1 53577U 22101BC  22284.25001157  .00087612  00000-0  62363-3 0  9999,2 53577  53.2136 255.0906 0003670   9.6886  55.3068 15.73138974  8282,6728.069,91.537,352.403,347.465,0.0
53577.0,STARLINK-4553,PAYLOAD,2022-10-11 14:00:01,15.73205571,0.0003407,53.2173,253.4319,4.3325,149.4467,-1.9998e-05,-3.431e-05,0.0,0 STARLINK-4553,1 53577U 22101BC  22284.58334491 -.00003431  00000-0 -19998-4 0  9991,2 53577  53.2173 253.4319 0003407   4.3325 149.4467 15.73205571  8333,6727.879,91.533,352.036,347.452,0.0
53577.0,STARLINK-4553,PAYLOAD,2022-10-11 22:00:00,15.73211005,0.0003273999999999,53.2127,251.7903,8.6004,234.1475,-0.00016094,-0.00023166,0.0,0 STARLINK-4553,1 53577U 22101BC  22284.91667824 -.00023166  00000-0 -16094-3 0  9997,2 53577  53.2127 251.7903 0003274   8.6004 234.1475 15.73211005  1305,6727.864000000001,91.533,351.932,347.526,0.0
53577.0,STARLINK-4553,PAYLOAD,2022-10-12 14:00:01,15.73274036,0.0003563,53.2152,248.4877,5.7908,54.8336,-0.001539,-0.00212038,0.0,0 STARLINK-4553,1 53577U 22101BC  22285.58334491 -.00212038  00000-0 -15390-2 0  9997,2 53577  53.2152 248.4877 0003563   5.7908  54.8336 15.73274036  1304,6727.684,91.529,351.946,347.152,0.0
53577.0,STARLINK-4553,PAYLOAD,2022-10-12 22:00:00,15.73157798,0.0003582,53.2169,246.8338,10.4295,139.1088,0.00054304,0.00076166,0.0,0 STARLINK-4553,1 53577U 22101BC  22285.91667824  .00076166  00000-0  54304-3 0  9990,2 53577  53.2169 246.8338 0003582  10.4295 139.1088 15.73157798  1305,6728.015,91.536,352.29,347.471,0.0
